IRIDIUM 36 [-]          
1 24967U 97056C   23307.82984890  .00000898  00000+0  29969-3 0  9990
2 24967  86.3977  61.2689 0002235  95.6002 264.5450 14.36485982367299
IRIDIUM 39 [-]          
1 25042U 97069D   23308.20009486  .00001382  00000+0  37003-3 0  9998
2 25042  86.3877 104.2533 0020292 115.4816 244.8489 14.47462152363684
IRIDIUM 38 [-]          
1 25043U 97069E   23307.90907286  .00000762  00000+0  25081-3 0  9994
2 25043  86.3924 121.7437 0000542 177.3031 182.8169 14.36942131361016
IRIDIUM 42 [-]          
1 25077U 97077A   23307.90360989  .00000656  00000+0  22257-3 0  9997
2 25077  86.3933 127.1957 0001463  97.0217 263.1145 14.35252559356352
IRIDIUM 44 [-]          
1 25078U 97077B   23307.90795646  .00000840  00000+0  26587-3 0  9995
2 25078  86.3914 110.7033 0003015 128.4476 231.6994 14.39047859358630
IRIDIUM 45 [-]          
1 25104U 97082A   23307.81243884  .00014393  00000+0  92178-3 0  9990
2 25104  86.3751 327.9604 0176715 339.6345  19.7894 14.96360093362937
IRIDIUM 24 [-]          
1 25105U 97082B   23308.13510930  .00000767  00000+0  23346-3 0  9997
2 25105  86.3901 330.5970 0010003 220.4445 139.6011 14.40807410358325
IRIDIUM 51 [-]          
1 25262U 98018A   23307.82483837  .00015623  00000+0  86355-3 0  9997
2 25262  86.3921 338.4288 0161060 293.0011  65.4303 15.03270344357324
